{
    "links": {
        "self": "http://www.neowsapp.com/rest/v1/neo/3733129?api_key=iIulBulltgU6a56xZRHN4H3l9WmuAYTsLGpBGhQ2"
    },
    "id": "3733129",
    "neo_reference_id": "3733129",
    "name": "(2015 VA1)",
    "designation": "2015 VA1",
    "nasa_jpl_url": "http://ssd.jpl.nasa.gov/sbdb.cgi?sstr=3733129",
    "absolute_magnitude_h": 25.0,
    "estimated_diameter": {
        "kilometers": {
            "estimated_diameter_min": 0.02658,
            "estimated_diameter_max": 0.0594346868
        },
        "meters": {
            "estimated_diameter_min": 26.58,
            "estimated_diameter_max": 59.4346868419
        },
        "miles": {
            "estimated_diameter_min": 0.0165160412,
            "estimated_diameter_max": 0.0369309908
        },
        "feet": {
            "estimated_diameter_min": 87.2047272,
            "estimated_diameter_max": 194.9956979785
        }
    },
    "is_potentially_hazardous_asteroid": false,
    "close_approach_data": [
        {
            "close_approach_date": "2015-11-09",
            "close_approach_date_full": "2015-Nov-09 06:43",
            "epoch_date_close_approach": 1447051380000,
            "relative_velocity": {
                "kilometers_per_second": "4.2919193488",
                "kilometers_per_hour": "15450.909655545",
                "miles_per_hour": "9600.5943912468"
            },
            "miss_distance": {
                "astronomical": "0.1023829467",
                "lunar": "39.8269662663",
                "kilometers": "15316270.750643529",
                "miles": "9517089.3311535402"
            },
            "orbiting_body": "Earth"
        }
    ],
    "orbital_data": {
        "orbit_id": "8",
        "orbit_determination_date": "2017-04-06 08:31:03",
        "first_observation_date": "2015-11-01",
        "last_observation_date": "2015-11-30",
        "data_arc_in_days": 29,
        "observations_used": 26,
        "orbit_uncertainty": "7",
        "minimum_orbit_intersection": ".0873817",
        "jupiter_tisserand_invariant": "4.138",
        "epoch_osculation": "2459000.5",
        "eccentricity": ".3623711417507758",
        "semi_major_axis": "1.691221232342445",
        "inclination": "2.743530290727347",
        "ascending_node_longitude": "227.7230437669015",
        "orbital_period": "803.3393866408414",
        "perihelion_distance": "1.078371463425359",
        "perihelion_argument": "175.3021136478845",
        "aphelion_distance": "2.304071001259531",
        "perihelion_time": "2458942.356569214531",
        "mean_anomaly": "26.05578094495579",
        "mean_motion": ".4481294033214751",
        "equinox": "J2000",
        "orbit_class": {
            "orbit_class_type": "AMO",
            "orbit_class_description": "Near-Earth asteroid orbits similar to that of 1221 Amor",
            "orbit_class_range": "1.017 AU < q (perihelion) < 1.3 AU"
        }
    },
    "is_sentry_object": false
}